[{"OBJECT_NAME":"YAOGAN-36 04C","OBJECT_ID":"2022-171E","EPOCH":"2026-03-09T18:55:44.889600","MEAN_MOTION":15.29852307,"ECCENTRICITY":0.00066848,"INCLINATION":34.9797,"RA_OF_ASC_NODE":96.6578,"ARG_OF_PERICENTER":275.3761,"MEAN_ANOMALY":84.6192,"EPHEMERIS_TYPE":0,"CLASSIFICATION_TYPE":"U","NORAD_CAT_ID":54750,"ELEMENT_SET_NO":999,"REV_AT_EPOCH":18024,"BSTAR":0.00054591902,"MEAN_MOTION_DOT":0.00016196,"MEAN_MOTION_DDOT":0},{"OBJECT_NAME":"STARLINK-33884","OBJECT_ID":"2025-089V","EPOCH":"2026-03-09T23:21:20.108160","MEAN_MOTION":15.27587563,"ECCENTRICITY":6.035e-5,"INCLINATION":42.9994,"RA_OF_ASC_NODE":43.3934,"ARG_OF_PERICENTER":151.181,"MEAN_ANOMALY":208.9075,"EPHEMERIS_TYPE":0,"CLASSIFICATION_TYPE":"U","NORAD_CAT_ID":63770,"ELEMENT_SET_NO":999,"REV_AT_EPOCH":4895,"BSTAR":0.00083226801,"MEAN_MOTION_DOT":0.00022716,"MEAN_MOTION_DDOT":0}]
